{
  "type": "FeatureCollection",
  "features": [
    {
      "type": "Feature",
      "properties": {
        "Name": "1. La Giganta – Die ewige Wächterin",
        "audio": "https://xzymbvnljudyypdyuisf.supabase.co/storage/v1/object/public/quinta_de/1.mp3"
      },
      "geometry": {
        "type": "Point",
        "coordinates": [
          -16.4913284,
          28.4307331
        ]
      }
    },
    {
      "type": "Feature",
      "properties": {
        "Name": "2. Barranco de la Cruz – Die Wege des Krieges",
        "audio": "https://xzymbvnljudyypdyuisf.supabase.co/storage/v1/object/public/quinta_de/2.mp3"
      },
      "geometry": {
        "type": "Point",
        "coordinates": [
          -16.4922505,
          28.431655
        ]
      }
    },
    {
      "type": "Feature",
      "properties": {
        "Name": "3. Mirador Callado Blanco – Die wandernde Insel",
        "audio": "https://xzymbvnljudyypdyuisf.supabase.co/storage/v1/object/public/quinta_de/3.mp3"
      },
      "geometry": {
        "type": "Point",
        "coordinates": [
          -16.4927503,
          28.4379028
        ]
      }
    },
    {
      "type": "Feature",
      "properties": {
        "Name": "4. Bunker von Santa Úrsula – Die Stimme der Steine",
        "audio": "https://xzymbvnljudyypdyuisf.supabase.co/storage/v1/object/public/quinta_de/4.mp3"
      },
      "geometry": {
        "type": "Point",
        "coordinates": [
          -16.4965031,
          28.4370121
        ]
      }
    },
    {
      "type": "Feature",
      "properties": {
        "Name": "5. Mirador de La Quinta Roja – Das innere Königreich",
        "audio": "https://xzymbvnljudyypdyuisf.supabase.co/storage/v1/object/public/quinta_de/5.mp3"
      },
      "geometry": {
        "type": "Point",
        "coordinates": [
          -16.4963526,
          28.4361456
        ]
      }
    }
  ]
}